{"spkid": "54143421", "covariance": {"epoch": "2459046.5", "data": [["1.646461156355651E-14", "-2.080688644199243E-14", "1.899476747252641E-12", "-4.583681136060204E-13", "3.654715029334443E-12", "1.945407809444082E-13"], ["-2.080688644199243E-14", "2.629558358906686E-14", "-2.40181337440928E-12", "5.783243212950552E-13", "-4.618117944027441E-12", "-2.457697142107692E-13"], ["1.899476747252641E-12", "-2.40181337440928E-12", "2.260432350232376E-10", "-1.306969603947789E-11", "3.875203157969773E-10", "1.861454317900085E-11"], ["-4.583681136060204E-13", "5.783243212950552E-13", "-1.306969603947789E-11", "1.267640918668211E-9", "-1.318048617052534E-9", "-1.894658664976997E-10"], ["3.654715029334443E-12", "-4.618117944027441E-12", "3.875203157969773E-10", "-1.318048617052534E-9", "1.994229454436833E-9", "2.234608722389511E-10"], ["1.945407809444082E-13", "-2.457697142107692E-13", "1.861454317900085E-11", "-1.894658664976997E-10", "2.234608722389511E-10", "3.436306510598138E-11"]], "elements": [{"value": ".3094543578516672", "title": "eccentricity", "units": null, "sigma": 1.28314502545724e-07, "name": "e", "label": "e"}, {"units": "au", "value": ".829131763262465", "title": "perihelion distance", "sigma": 1.62159130452364e-07, "name": "q", "label": "q"}, {"name": "tp", "sigma": 1.50347342850892e-05, "units": "TDB", "title": "time of perihelion passage", "value": "2458939.605109336570", "label": "tp"}, {"label": "node", "title": "longitude of the ascending node", "value": "72.63177233965425", "units": "deg", "name": "om", "sigma": 3.56039452683015e-05}, {"label": "peri", "name": "w", "sigma": 4.46567962849647e-05, "value": "249.109554558216", "title": "argument of perihelion", "units": "deg"}, {"name": "i", "sigma": 5.86200180023696e-06, "title": "inclination", "value": "2.505247936899612", "units": "deg", "label": "i"}], "labels": ["e", "q", "tp", "node", "peri", "i"]}, "elements": [{"sigma": "1.3033E-7", "name": "e", "units": null, "title": "eccentricity", "value": ".308813301592709", "label": "e"}, {"sigma": "9.9047E-9", "name": "a", "units": "au", "title": "semi-major axis", "value": "1.199296829263625", "label": "a"}, {"units": "au", "value": ".8289380158290574", "title": "perihelion distance", "sigma": "1.6026E-7", "name": "q", "label": "q"}, {"sigma": "6.2156E-6", "name": "i", "title": "inclination; angle with respect to x-y ecliptic plane", "value": "2.696454611182599", "units": "deg", "label": "i"}, {"sigma": "3.3371E-5", "name": "om", "units": "deg", "value": "72.05124686990287", "title": "longitude of the ascending node", "label": "node"}, {"units": "deg", "title": "argument of perihelion", "value": "249.7445364563017", "sigma": "4.2025E-5", "name": "w", "label": "peri"}, {"units": "deg", "title": "mean anomaly", "value": "255.8991676106232", "name": "ma", "sigma": "1.4548E-5", "label": "M"}, {"label": "tp", "units": "TDB", "value": "2461339.220343797058", "title": "time of perihelion passage", "sigma": "2.1027E-5", "name": "tp"}, {"units": "d", "value": "479.7206959897196", "title": "sidereal orbital period", "sigma": "5.9428E-6", "name": "per", "label": "period"}, {"sigma": "9.2965E-9", "name": "n", "value": ".7504366666050921", "title": "mean motion", "units": "deg/d", "label": "n"}, {"label": "Q", "title": "aphelion distance", "value": "1.569655642698192", "units": "au", "sigma": "1.2963E-8", "name": "ad"}], "epoch": "2461200.5"}